[
  {
    "name": "KUIPER-00230",
    "noradId": "68579",
    "line1": "1 68579U 26072G   26182.93826150  .00046914  00000+0  12248-2 0  9997",
    "line2": "2 68579  51.8755 105.3137 0003221  74.0324 286.1018 15.38331762 13656"
  },
  {
    "name": "KUIPER-00231",
    "noradId": "68580",
    "line1": "1 68580U 26072H   26182.91668981 -.01133317  00000+0 -55898-1 0  9997",
    "line2": "2 68580  51.8855 105.9389 0003524  79.0494 225.1333 15.20196769  5711"
  },
  {
    "name": "KUIPER-00234",
    "noradId": "68581",
    "line1": "1 68581U 26072J   26182.10904698  .00002543  00000+0  39153-3 0  9998",
    "line2": "2 68581  51.8987 128.7439 0000709 212.4189 147.6728 14.76565354 13257"
  },
  {
    "name": "KUIPER-00236",
    "noradId": "68582",
    "line1": "1 68582U 26072K   26182.95569201  .00042062  00000+0  11149-2 0  9993",
    "line2": "2 68582  51.8762 105.4318 0003637  71.5947 288.5436 15.37914455 13659"
  },
  {
    "name": "KUIPER-00244",
    "noradId": "68583",
    "line1": "1 68583U 26072L   26182.11831613  .00003872  00000+0  53757-3 0  9999",
    "line2": "2 68583  51.9002 119.0582 0001596  79.2261 280.8881 14.79857030 13398"
  },
  {
    "name": "KUIPER-00253",
    "noradId": "68584",
    "line1": "1 68584U 26072M   26182.11560605  .00000176  00000+0  52056-4 0  9996",
    "line2": "2 68584  51.9040 121.5690 0000500  67.2058 292.8957 14.79941866 13358"
  },
  {
    "name": "KUIPER-00254",
    "noradId": "68585",
    "line1": "1 68585U 26072N   26182.14667799 -.00002157  00000+0 -25390-3 0  9995",
    "line2": "2 68585  51.9025 123.9311 0002052  70.7231 289.3953 14.79942763 13325"
  },
  {
    "name": "KUIPER-00263",
    "noradId": "68586",
    "line1": "1 68586U 26072P   26182.91668981 -.00976829  00000+0 -69887-1 0  9998",
    "line2": "2 68586  51.8951 107.1213 0002188  90.6146 323.2371 15.06635336  3545"
  },
  {
    "name": "KUIPER-00269",
    "noradId": "68587",
    "line1": "1 68587U 26072Q   26182.91668981 -.01231986  00000+0 -11421+0 0  9997",
    "line2": "2 68587  51.9078 108.5274 0004158  74.9422  92.0903 14.97064141  4081"
  },
  {
    "name": "KUIPER-00272",
    "noradId": "68588",
    "line1": "1 68588U 26072R   26182.84763666  .00003958  00000+0  54778-3 0  9995",
    "line2": "2 68588  51.8975 128.3098 0000995  74.5645 285.5428 14.79936578 13329"
  },
  {
    "name": "KUIPER-00285",
    "noradId": "68589",
    "line1": "1 68589U 26072S   26182.91668981 -.00067030  00000+0 -61496-2 0  9995",
    "line2": "2 68589  51.8949 108.6224 0008242  64.6642 292.3560 14.94663285  3537"
  },
  {
    "name": "KUIPER-00286",
    "noradId": "68590",
    "line1": "1 68590U 26072T   26182.91668981 -.01243449  00000+0 -74467-1 0  9999",
    "line2": "2 68590  51.8889 106.6932 0005202  48.1244 293.1416 15.13723610  5413"
  },
  {
    "name": "KUIPER-00289",
    "noradId": "68591",
    "line1": "1 68591U 26072U   26182.91668981 -.00047565  00000+0 -62122-2 0  9996",
    "line2": "2 68591  51.8983 113.0241 0002123 126.6273 154.7125 14.80214448  4692"
  },
  {
    "name": "KUIPER-00290",
    "noradId": "68592",
    "line1": "1 68592U 26072V   26182.91668981 -.00238620  00000+0 -23985-1 0  9994",
    "line2": "2 68592  51.8956 111.7276 0011751  80.0317 308.8209 14.92103137  2873"
  },
  {
    "name": "KUIPER-00293",
    "noradId": "68593",
    "line1": "1 68593U 26072W   26182.78549710  .00000658  00000+0  11539-3 0  9998",
    "line2": "2 68593  51.8978 123.5872 0003129  96.1479 263.9839 14.79929622 13386"
  },
  {
    "name": "KUIPER-00294",
    "noradId": "68594",
    "line1": "1 68594U 26072X   26182.91668981 -.01838632  00000+0 -20246+0 0  9991",
    "line2": "2 68594  51.8969 110.6759 0009506  60.9821 122.0462 14.90516387  4439"
  },
  {
    "name": "KUIPER-00296",
    "noradId": "68595",
    "line1": "1 68595U 26072Y   26182.96286322  .00044455  00000+0  11485-2 0  9999",
    "line2": "2 68595  51.8704 105.4317 0009666  77.8883 282.3187 15.38639512 13658"
  },
  {
    "name": "KUIPER-00297",
    "noradId": "68596",
    "line1": "1 68596U 26072Z   26182.83247009  .00002696  00000+0  41548-3 0  9990",
    "line2": "2 68596  51.8997 122.8071 0001161 112.9722 247.1361 14.76337563 13406"
  },
  {
    "name": "KUIPER-00300",
    "noradId": "68597",
    "line1": "1 68597U 26072AA  26182.14849453  .00002989  00000+0  45612-3 0  9997",
    "line2": "2 68597  51.9017 122.8805 0001876 102.1365 257.9806 14.76452401 13348"
  },
  {
    "name": "KUIPER-00301",
    "noradId": "68598",
    "line1": "1 68598U 26072AB  26182.96509810  .00056828  00000+0  14674-2 0  9992",
    "line2": "2 68598  51.8659 105.4045 0010290  89.8295 270.3872 15.38540429 13659"
  },
  {
    "name": "KUIPER-00304",
    "noradId": "68599",
    "line1": "1 68599U 26072AC  26182.78251786  .00034789  00000+0  91185-3 0  9994",
    "line2": "2 68599  51.8671 106.4383 0011768  76.4633 283.7665 15.38288468 13626"
  },
  {
    "name": "KUIPER-00317",
    "noradId": "68600",
    "line1": "1 68600U 26072AD  26182.91668981 -.00093573  00000+0 -11215-1 0  9993",
    "line2": "2 68600  51.8984 110.6061 0012317  82.9438 332.1909 14.84095132  4109"
  },
  {
    "name": "KUIPER-00320",
    "noradId": "68601",
    "line1": "1 68601U 26072AE  26182.96236091  .00010049  00000+0  13445-2 0  9995",
    "line2": "2 68601  51.9025 115.3148 0000753  98.9625 261.1423 14.79955904 13514"
  },
  {
    "name": "KUIPER-00299",
    "noradId": "68864",
    "line1": "1 68864U 26095A   26182.27844799  .00001992  00000+0  31416-3 0  9991",
    "line2": "2 68864  51.8986 186.5784 0001962 211.9401 148.1441 14.76455326  9720"
  },
  {
    "name": "KUIPER-00353",
    "noradId": "68865",
    "line1": "1 68865U 26095B   26182.91668981 -.01177132  00000+0 -71296-1 0  9991",
    "line2": "2 68865  51.8979 172.1120 0002098  17.4834 311.7253 15.13178704  5817"
  },
  {
    "name": "KUIPER-00357",
    "noradId": "68866",
    "line1": "1 68866U 26095C   26182.91668981 -.00219310  00000+0 -29595-1 0  9991",
    "line2": "2 68866  51.9159 178.0239 0000344  63.4585 232.1491 14.80064791  4217"
  },
  {
    "name": "KUIPER-00364",
    "noradId": "68867",
    "line1": "1 68867U 26095D   26182.91668981  .00034879  00000+0  45699-2 0  9999",
    "line2": "2 68867  51.9013 180.5292 0002400 141.0506 348.8397 14.80029027  4207"
  },
  {
    "name": "KUIPER-00375",
    "noradId": "68868",
    "line1": "1 68868U 26095E   26182.91668981 -.01886602  00000+0 -14222+0 0  9997",
    "line2": "2 68868  51.8945 173.2401 0001292 338.5266 162.5517 15.05775700  5059"
  },
  {
    "name": "KUIPER-00433",
    "noradId": "68869",
    "line1": "1 68869U 26095F   26182.71573215  .00002238  00000+0  32261-3 0  9990",
    "line2": "2 68869  51.8968 188.9135 0000716  70.9074 289.1966 14.79909506  9732"
  },
  {
    "name": "KUIPER-00437",
    "noradId": "68870",
    "line1": "1 68870U 26095G   26182.25695706  .00060216  00000+0  15685-2 0  9991",
    "line2": "2 68870  51.8759 174.3575 0008046   4.4202 355.6854 15.38266146  9892"
  },
  {
    "name": "KUIPER-00448",
    "noradId": "68871",
    "line1": "1 68871U 26095H   26182.91668981  .00013414  00000+0  16692-2 0  9997",
    "line2": "2 68871  51.9017 176.0634 0001913  71.1057 329.8943 14.82753585  5851"
  },
  {
    "name": "KUIPER-00459",
    "noradId": "68872",
    "line1": "1 68872U 26095J   26182.66635428  .00022054  00000+0  65660-3 0  9990",
    "line2": "2 68872  51.8680 173.2808 0009990   1.0824 359.0182 15.34586663  9949"
  },
  {
    "name": "KUIPER-00468",
    "noradId": "68873",
    "line1": "1 68873U 26095K   26182.70046312  .00046498  00000+0  12309-2 0  9993",
    "line2": "2 68873  51.8804 172.0990 0004491 345.8951  14.1910 15.37905009  9960"
  },
  {
    "name": "KUIPER-00476",
    "noradId": "68874",
    "line1": "1 68874U 26095L   26182.58460373  .00031010  00000+0  92154-3 0  9998",
    "line2": "2 68874  51.8713 173.5045 0009134   4.9545 355.1530 15.34458824  9936"
  },
  {
    "name": "KUIPER-00478",
    "noradId": "68875",
    "line1": "1 68875U 26095M   26182.91668981 -.01160464  00000+0 -43759-1 0  9995",
    "line2": "2 68875  51.8788 171.5324 0008195   8.2751 226.3933 15.29583402  4575"
  },
  {
    "name": "KUIPER-00480",
    "noradId": "68876",
    "line1": "1 68876U 26095N   26182.91668981 -.02053193  00000+0 -64834-1 0  9994",
    "line2": "2 68876  51.8769 171.0830 0006042 356.6421  93.9530 15.36053093  5731"
  },
  {
    "name": "KUIPER-00482",
    "noradId": "68877",
    "line1": "1 68877U 26095P   26182.91668981 -.00039598  00000+0 -44661-2 0  9993",
    "line2": "2 68877  51.9001 175.1542 0002514  17.6317 270.0781 14.86183643  2131"
  },
  {
    "name": "KUIPER-00483",
    "noradId": "68878",
    "line1": "1 68878U 26095Q   26182.29044304  .00002240  00000+0  34858-3 0  9992",
    "line2": "2 68878  51.8973 190.2206 0001865 186.9908 173.1027 14.76567226  9672"
  },
  {
    "name": "KUIPER-00488",
    "noradId": "68879",
    "line1": "1 68879U 26095R   26182.91668981 -.02143737  00000+0 -12084+0 0  9999",
    "line2": "2 68879  51.8803 172.6708 0010628  30.5440 289.7352 15.16555475  5868"
  },
  {
    "name": "KUIPER-00489",
    "noradId": "68880",
    "line1": "1 68880U 26095S   26182.52233671  .00030133  00000+0  89966-3 0  9990",
    "line2": "2 68880  51.8723 173.8431 0010745   8.9345 351.1830 15.34311405  9929"
  },
  {
    "name": "KUIPER-00499",
    "noradId": "68881",
    "line1": "1 68881U 26095T   26182.91668981 -.01107242  00000+0 -46944-1 0  9996",
    "line2": "2 68881  51.8731 172.2905 0008052   9.4362 166.4052 15.25624745  4844"
  },
  {
    "name": "KUIPER-00500",
    "noradId": "68882",
    "line1": "1 68882U 26095U   26182.27913161  .00002625  00000+0  37320-3 0  9995",
    "line2": "2 68882  51.8992 188.3409 0001114 310.5731  49.5134 14.79928737  9707"
  },
  {
    "name": "KUIPER-00502",
    "noradId": "68883",
    "line1": "1 68883U 26095V   26182.95675887  .00038122  00000+0  99575-3 0  9992",
    "line2": "2 68883  51.8788 170.8077 0006884   7.8464 352.2630 15.38395768 10004"
  }
]